IRIDIUM 116             
1 43072U 17083C   25354.18897407  .00000159  00000+0  49791-4 0  9996
2 43072  86.3958  36.8175 0002515  93.8553 266.2930 14.34217953418519
IRIDIUM 130             
1 43073U 17083D   25354.43633375  .00000068  00000+0  17080-4 0  9992
2 43073  86.3968  36.9722 0002494  97.9290 262.2189 14.34218405418491
IRIDIUM 151             
1 43074U 17083E   25354.48073132  .00000056  00000+0  13056-4 0  9993
2 43074  86.3963  36.7497 0002252  93.1668 266.9785 14.34218060418527
IRIDIUM 134             
1 43075U 17083F   25354.16995054  .00000221  00000+0  71986-4 0  9995
2 43075  86.3963  36.8850 0002320  98.4545 261.6914 14.34216259418445
IRIDIUM 137             
1 43076U 17083G   25354.18263075  .00000123  00000+0  36693-4 0  9996
2 43076  86.3964  36.9689 0002577  85.2212 274.9278 14.34218303418517
IRIDIUM 141             
1 43077U 17083H   25354.10651807  .00000135  00000+0  41192-4 0  9996
2 43077  86.3949  36.8406 0002051  96.8278 263.3151 14.34218401418504
IRIDIUM 153             
1 43078U 17083J   25354.26800135  .00000051  00000+0  11201-4 0  9999
2 43078  86.3968   5.2644 0001904  97.7551 262.3861 14.34218151419634
IRIDIUM 131             
1 43079U 17083K   25354.37290632  .00000152  00000+0  47081-4 0  9994
2 43079  86.3965  36.9042 0002121  93.3153 266.8286 14.34218741418473
